{"fetched_at":"2026-03-30T06:02:59Z","count":15439,"tles":[{"name":"STARLINK-4200","line1":"1 52876U 22062AY  26087.83644649  .00000338  00000+0  39321-4 0  9992","line2":"2 52876  53.2177 288.1699 0001419  96.0732 264.0422 15.08846047208957","category":"Starlink"}]}